STARLINK-5738           
1 55573U 23020E   26082.91667824  .00059066  00000+0  32006-2 0  9991
2 55573  42.9993 287.1353 0001470 224.6752  69.3738 15.13793546  5838
STARLINK-5747           
1 55574U 23020F   26082.91667824  .00937499  00000+0  53181-1 0  9993
2 55574  42.9998 287.2587 0001530 270.8261 330.1430 15.09830264  5785
STARLINK-5745           
1 55575U 23020G   26082.91667824  .00076604  00000+0  42343-2 0  9995
2 55575  42.9990 287.1593 0002030 242.1018  40.8427 15.12965231  5780
STARLINK-5751           
1 55576U 23020H   26082.76130043  .00001644  00000+0  70941-4 0  9996
2 55576  43.0001 259.8437 0001922 256.7383 103.3254 15.26745653171364
STARLINK-5752           
1 55577U 23020J   26082.91667824  .00080568  00000+0  29904-2 0  9999
2 55577  42.9997 284.8863 0001310 262.4501 235.9213 15.26631349  5825
STARLINK-5754           
1 55579U 23020L   26082.94649586  .00021330  00000+0  78362-3 0  9994
2 55579  43.0010 284.6436 0001492 267.7051  92.3629 15.27528240171093
STARLINK-5757           
1 55580U 23020M   26082.91667824  .00065849  00000+0  24450-2 0  9999
2 55580  43.0003 259.1805 0001447 267.1603 138.1577 15.26708759  5823
STARLINK-5753           
1 55581U 23020N   26082.91667824  .00061860  00000+0  38958-2 0  9997
2 55581  43.0003 287.3111 0001979 247.6435 331.6912 15.08344478  5729
STARLINK-5741           
1 55582U 23020P   26082.91667824  .01372309  00000+0  54551-1 0  9998
2 55582  43.0002 273.6548 0001562 239.8651 270.9616 15.21786416  5837
STARLINK-5742           
1 55583U 23020Q   26082.91661041  .00000572  00000+0  30994-4 0  9991
2 55583  43.0015 284.4224 0001239 271.5926  88.4783 15.26736527171094
STARLINK-5736           
1 55584U 23020R   26082.91667824  .00593225  00000+0  21250-1 0  9991
2 55584  43.0063 285.2473 0001339 263.6720 110.5871 15.25790649  5824
STARLINK-5769           
1 55585U 23020S   26082.91667824  .01394383  00000+0  57538-1 0  9995
2 55585  42.9990 273.9357 0001943 286.2646 110.2380 15.20459767  5635
STARLINK-5767           
1 55586U 23020T   26082.91667824  .00087772  00000+0  32511-2 0  9991
2 55586  42.9995 284.7367 0001812 276.2501 313.4666 15.26657411  5823
STARLINK-5727           
1 55587U 23020U   26082.87690962 -.00006184  00000+0 -22078-3 0  9994
2 55587  42.9997 284.9180 0001525 269.7048  90.3628 15.26776057171084
STARLINK-5728           
1 55588U 23020V   26082.91667824  .00032454  00000+0  12462-2 0  9993
2 55588  42.9998 284.5992 0001354 269.9459  18.5475 15.25878844  5771
STARLINK-5697           
1 55589U 23020W   26082.61688385  .00000639  00000+0  33520-4 0  9996
2 55589  43.0015 286.4667 0001345 262.9501  97.1197 15.26741911171048
