[{"OBJECT_NAME":"STARLINK-5738","OBJECT_ID":"2023-020E","EPOCH":"2026-03-23T22:00:00.999936","MEAN_MOTION":15.13793546,"ECCENTRICITY":0.00014705,"INCLINATION":42.9993,"RA_OF_ASC_NODE":287.1353,"ARG_OF_PERICENTER":224.6752,"MEAN_ANOMALY":69.3738,"EPHEMERIS_TYPE":0,"CLASSIFICATION_TYPE":"U","NORAD_CAT_ID":55573,"ELEMENT_SET_NO":999,"REV_AT_EPOCH":583,"BSTAR":0.0032005962,"MEAN_MOTION_DOT":0.00059066,"MEAN_MOTION_DDOT":0},{"OBJECT_NAME":"STARLINK-5747","OBJECT_ID":"2023-020F","EPOCH":"2026-03-23T22:00:00.999936","MEAN_MOTION":15.09830264,"ECCENTRICITY":0.00015304,"INCLINATION":42.9998,"RA_OF_ASC_NODE":287.2587,"ARG_OF_PERICENTER":270.8261,"MEAN_ANOMALY":330.143,"EPHEMERIS_TYPE":0,"CLASSIFICATION_TYPE":"U","NORAD_CAT_ID":55574,"ELEMENT_SET_NO":999,"REV_AT_EPOCH":578,"BSTAR":0.053181026,"MEAN_MOTION_DOT":0.00937499,"MEAN_MOTION_DDOT":0},{"OBJECT_NAME":"STARLINK-5745","OBJECT_ID":"2023-020G","EPOCH":"2026-03-23T22:00:00.999936","MEAN_MOTION":15.12965231,"ECCENTRICITY":0.00020301,"INCLINATION":42.999,"RA_OF_ASC_NODE":287.1593,"ARG_OF_PERICENTER":242.1018,"MEAN_ANOMALY":40.8427,"EPHEMERIS_TYPE":0,"CLASSIFICATION_TYPE":"U","NORAD_CAT_ID":55575,"ELEMENT_SET_NO":999,"REV_AT_EPOCH":578,"BSTAR":0.0042343291,"MEAN_MOTION_DOT":0.00076604,"MEAN_MOTION_DDOT":0},{"OBJECT_NAME":"STARLINK-5751","OBJECT_ID":"2023-020H","EPOCH":"2026-03-23T18:16:16.357152","MEAN_MOTION":15.26745653,"ECCENTRICITY":0.00019223,"INCLINATION":43.0001,"RA_OF_ASC_NODE":259.8437,"ARG_OF_PERICENTER":256.7383,"MEAN_ANOMALY":103.3254,"EPHEMERIS_TYPE":0,"CLASSIFICATION_TYPE":"U","NORAD_CAT_ID":55576,"ELEMENT_SET_NO":999,"REV_AT_EPOCH":17136,"BSTAR":7.0941002e-5,"MEAN_MOTION_DOT":1.644e-5,"MEAN_MOTION_DDOT":0},{"OBJECT_NAME":"STARLINK-5752","OBJECT_ID":"2023-020J","EPOCH":"2026-03-23T22:00:00.999936","MEAN_MOTION":15.26631349,"ECCENTRICITY":0.00013105,"INCLINATION":42.9997,"RA_OF_ASC_NODE":284.8863,"ARG_OF_PERICENTER":262.4501,"MEAN_ANOMALY":235.9213,"EPHEMERIS_TYPE":0,"CLASSIFICATION_TYPE":"U","NORAD_CAT_ID":55577,"ELEMENT_SET_NO":999,"REV_AT_EPOCH":582,"BSTAR":0.0029904018,"MEAN_MOTION_DOT":0.00080568,"MEAN_MOTION_DDOT":0},{"OBJECT_NAME":"STARLINK-5754","OBJECT_ID":"2023-020L","EPOCH":"2026-03-23T22:42:57.242304","MEAN_MOTION":15.2752824,"ECCENTRICITY":0.00014926,"INCLINATION":43.001,"RA_OF_ASC_NODE":284.6436,"ARG_OF_PERICENTER":267.7051,"MEAN_ANOMALY":92.3629,"EPHEMERIS_TYPE":0,"CLASSIFICATION_TYPE":"U","NORAD_CAT_ID":55579,"ELEMENT_SET_NO":999,"REV_AT_EPOCH":17109,"BSTAR":0.00078361618,"MEAN_MOTION_DOT":0.0002133,"MEAN_MOTION_DDOT":0},{"OBJECT_NAME":"STARLINK-5757","OBJECT_ID":"2023-020M","EPOCH":"2026-03-23T22:00:00.999936","MEAN_MOTION":15.26708759,"ECCENTRICITY":0.00014476,"INCLINATION":43.0003,"RA_OF_ASC_NODE":259.1805,"ARG_OF_PERICENTER":267.1603,"MEAN_ANOMALY":138.1577,"EPHEMERIS_TYPE":0,"CLASSIFICATION_TYPE":"U","NORAD_CAT_ID":55580,"ELEMENT_SET_NO":999,"REV_AT_EPOCH":582,"BSTAR":0.0024449899,"MEAN_MOTION_DOT":0.00065849,"MEAN_MOTION_DDOT":0},{"OBJECT_NAME":"STARLINK-5753","OBJECT_ID":"2023-020N","EPOCH":"2026-03-23T22:00:00.999936","MEAN_MOTION":15.08344478,"ECCENTRICITY":0.00019795,"INCLINATION":43.0003,"RA_OF_ASC_NODE":287.3111,"ARG_OF_PERICENTER":247.6435,"MEAN_ANOMALY":331.6912,"EPHEMERIS_TYPE":0,"CLASSIFICATION_TYPE":"U","NORAD_CAT_ID":55581,"ELEMENT_SET_NO":999,"REV_AT_EPOCH":572,"BSTAR":0.0038957525,"MEAN_MOTION_DOT":0.0006186,"MEAN_MOTION_DDOT":0},{"OBJECT_NAME":"STARLINK-5741","OBJECT_ID":"2023-020P","EPOCH":"2026-03-23T22:00:00.999936","MEAN_MOTION":15.21786416,"ECCENTRICITY":0.00015627,"INCLINATION":43.0002,"RA_OF_ASC_NODE":273.6548,"ARG_OF_PERICENTER":239.8651,"MEAN_ANOMALY":270.9616,"EPHEMERIS_TYPE":0,"CLASSIFICATION_TYPE":"U","NORAD_CAT_ID":55582,"ELEMENT_SET_NO":999,"REV_AT_EPOCH":583,"BSTAR":0.054551068,"MEAN_MOTION_DOT":0.01372309,"MEAN_MOTION_DDOT":0},{"OBJECT_NAME":"STARLINK-5742","OBJECT_ID":"2023-020Q","EPOCH":"2026-03-23T21:59:55.139424","MEAN_MOTION":15.26736527,"ECCENTRICITY":0.00012392,"INCLINATION":43.0015,"RA_OF_ASC_NODE":284.4224,"ARG_OF_PERICENTER":271.5926,"MEAN_ANOMALY":88.4783,"EPHEMERIS_TYPE":0,"CLASSIFICATION_TYPE":"U","NORAD_CAT_ID":55583,"ELEMENT_SET_NO":999,"REV_AT_EPOCH":17109,"BSTAR":3.0994028e-5,"MEAN_MOTION_DOT":5.72e-6,"MEAN_MOTION_DDOT":0},{"OBJECT_NAME":"STARLINK-5736","OBJECT_ID":"2023-020R","EPOCH":"2026-03-23T22:00:00.999936","MEAN_MOTION":15.25790649,"ECCENTRICITY":0.00013399,"INCLINATION":43.0063,"RA_OF_ASC_NODE":285.2473,"ARG_OF_PERICENTER":263.672,"MEAN_ANOMALY":110.5871,"EPHEMERIS_TYPE":0,"CLASSIFICATION_TYPE":"U","NORAD_CAT_ID":55584,"ELEMENT_SET_NO":999,"REV_AT_EPOCH":582,"BSTAR":0.021250267,"MEAN_MOTION_DOT":0.00593225,"MEAN_MOTION_DDOT":0},{"OBJECT_NAME":"STARLINK-5769","OBJECT_ID":"2023-020S","EPOCH":"2026-03-23T22:00:00.999936","MEAN_MOTION":15.20459767,"ECCENTRICITY":0.00019432,"INCLINATION":42.999,"RA_OF_ASC_NODE":273.9357,"ARG_OF_PERICENTER":286.2646,"MEAN_ANOMALY":110.238,"EPHEMERIS_TYPE":0,"CLASSIFICATION_TYPE":"U","NORAD_CAT_ID":55585,"ELEMENT_SET_NO":999,"REV_AT_EPOCH":563,"BSTAR":0.057538153,"MEAN_MOTION_DOT":0.01394383,"MEAN_MOTION_DDOT":0},{"OBJECT_NAME":"STARLINK-5767","OBJECT_ID":"2023-020T","EPOCH":"2026-03-23T22:00:00.999936","MEAN_MOTION":15.26657411,"ECCENTRICITY":0.00018128,"INCLINATION":42.9995,"RA_OF_ASC_NODE":284.7367,"ARG_OF_PERICENTER":276.2501,"MEAN_ANOMALY":313.4666,"EPHEMERIS_TYPE":0,"CLASSIFICATION_TYPE":"U","NORAD_CAT_ID":55586,"ELEMENT_SET_NO":999,"REV_AT_EPOCH":582,"BSTAR":0.0032511204,"MEAN_MOTION_DOT":0.00087772,"MEAN_MOTION_DDOT":0},{"OBJECT_NAME":"STARLINK-5727","OBJECT_ID":"2023-020U","EPOCH":"2026-03-23T21:02:44.991168","MEAN_MOTION":15.26776057,"ECCENTRICITY":0.00015259,"INCLINATION":42.9997,"RA_OF_ASC_NODE":284.918,"ARG_OF_PERICENTER":269.7048,"MEAN_ANOMALY":90.3628,"EPHEMERIS_TYPE":0,"CLASSIFICATION_TYPE":"U","NORAD_CAT_ID":55587,"ELEMENT_SET_NO":999,"REV_AT_EPOCH":17108,"BSTAR":-0.00022077785,"MEAN_MOTION_DOT":-6.184e-5,"MEAN_MOTION_DDOT":0},{"OBJECT_NAME":"STARLINK-5728","OBJECT_ID":"2023-020V","EPOCH":"2026-03-23T22:00:00.999936","MEAN_MOTION":15.25878844,"ECCENTRICITY":0.00013542,"INCLINATION":42.9998,"RA_OF_ASC_NODE":284.5992,"ARG_OF_PERICENTER":269.9459,"MEAN_ANOMALY":18.5475,"EPHEMERIS_TYPE":0,"CLASSIFICATION_TYPE":"U","NORAD_CAT_ID":55588,"ELEMENT_SET_NO":999,"REV_AT_EPOCH":577,"BSTAR":0.0012462253,"MEAN_MOTION_DOT":0.00032454,"MEAN_MOTION_DDOT":0},{"OBJECT_NAME":"STARLINK-5697","OBJECT_ID":"2023-020W","EPOCH":"2026-03-23T14:48:18.764640","MEAN_MOTION":15.26741911,"ECCENTRICITY":0.00013457,"INCLINATION":43.0015,"RA_OF_ASC_NODE":286.4667,"ARG_OF_PERICENTER":262.9501,"MEAN_ANOMALY":97.1197,"EPHEMERIS_TYPE":0,"CLASSIFICATION_TYPE":"U","NORAD_CAT_ID":55589,"ELEMENT_SET_NO":999,"REV_AT_EPOCH":17104,"BSTAR":3.3520348e-5,"MEAN_MOTION_DOT":6.39e-6,"MEAN_MOTION_DDOT":0}]
